{"type": "FeatureCollection", "features": [ {"type": "Feature", "properties": {"norad_id": 66540, "name": "STARLINK-35818", "group": "last-30-days", "lat": -37.82313331482036, "lon": 47.822657283056955, "alt_km": 347.0186606724401, "timestamp": "2025-12-04T05:42:42.158676+00:00", "meta": {"OBJECT_NAME": "STARLINK-35818", "OBJECT_ID": "2025-265AA", "EPOCH": "2025-12-03T22:00:03.000096", "MEAN_MOTION": 15.75405716, "ECCENTRICITY": 0.00019994, "INCLINATION": 42.9998, "RA_OF_ASC_NODE": 106.1933, "ARG_OF_PERICENTER": 274.4544, "MEAN_ANOMALY": 357.455, "EPHEMERIS_TYPE": 0, "CLASSIFICATION_TYPE": "U", "NORAD_CAT_ID": 66540, "ELEMENT_SET_NO": 999, "REV_AT_EPOCH": 357, "BSTAR": -0.0063532111, "MEAN_MOTION_DOT": -0.00893335, "MEAN_MOTION_DDOT": 0}, "tle": {"line1": "1 66540U 25265AA  25337.91670139 -.00893335  00000+0 -63532-2 0  9990", "line2": "2 66540  42.9998 106.1933 0001999 274.4544 357.4550 15.75405716  3570"}}, "geometry": {"type": "Point", "coordinates": [47.822657283056955, -37.82313331482036]}}, {"type": "Feature", "properties": {"norad_id": 66541, "name": "STARLINK-35796", "group": "last-30-days", "lat": -37.100070084451566, "lon": 49.984099086118455, "alt_km": 347.04421226879003, "timestamp": "2025-12-04T05:42:42.158686+00:00", "meta": {"OBJECT_NAME": "STARLINK-35796", "OBJECT_ID": "2025-265AB", "EPOCH": "2025-12-03T22:00:03.000096", "MEAN_MOTION": 15.75310596, "ECCENTRICITY": 0.00019544, "INCLINATION": 43, "RA_OF_ASC_NODE": 106.1884, "ARG_OF_PERICENTER": 269.336, "MEAN_ANOMALY": 4.4823, "EPHEMERIS_TYPE": 0, "CLASSIFICATION_TYPE": "U", "NORAD_CAT_ID": 66541, "ELEMENT_SET_NO": 999, "REV_AT_EPOCH": 357, "BSTAR": -0.0052055207, "MEAN_MOTION_DOT": -0.00742266, "MEAN_MOTION_DDOT": 0}, "tle": {"line1": "1 66541U 25265AB  25337.91670139 -.00742266  00000+0 -52055-2 0  9995", "line2": "2 66541  43.0000 106.1884 0001954 269.3360   4.4823 15.75310596  3575"}}, "geometry": {"type": "Point", "coordinates": [49.984099086118455, -37.100070084451566]}}, {"type": "Feature", "properties": {"norad_id": 66542, "name": "STARLINK-35833", "group": "last-30-days", "lat": -36.300695242549075, "lon": 52.20424126465709, "alt_km": 347.3606758194983, "timestamp": "2025-12-04T05:42:42.158696+00:00", "meta": {"OBJECT_NAME": "STARLINK-35833", "OBJECT_ID": "2025-265AC", "EPOCH": "2025-12-03T22:00:03.000096", "MEAN_MOTION": 15.75392115, "ECCENTRICITY": 0.00014412, "INCLINATION": 42.9999, "RA_OF_ASC_NODE": 106.1839, "ARG_OF_PERICENTER": 272.0195, "MEAN_ANOMALY": 3.7257, "EPHEMERIS_TYPE": 0, "CLASSIFICATION_TYPE": "U", "NORAD_CAT_ID": 66542, "ELEMENT_SET_NO": 999, "REV_AT_EPOCH": 357, "BSTAR": -0.0062615573, "MEAN_MOTION_DOT": -0.00881026, "MEAN_MOTION_DDOT": 0}, "tle": {"line1": "1 66542U 25265AC  25337.91670139 -.00881026  00000+0 -62616-2 0  9998", "line2": "2 66542  42.9999 106.1839 0001441 272.0195   3.7257 15.75392115  3579"}}, "geometry": {"type": "Point", "coordinates": [52.20424126465709, -36.300695242549075]}}, {"type": "Feature", "properties": {"norad_id": 66543, "name": "STARLINK-35315", "group": "last-30-days", "lat": -35.475595175092884, "lon": 54.341041190110616, "alt_km": 346.96774210541025, "timestamp": "2025-12-04T05:42:42.158709+00:00", "meta": {"OBJECT_NAME": "STARLINK-35315", "OBJECT_ID": "2025-265AD", "EPOCH": "2025-12-03T22:00:03.000096", "MEAN_MOTION": 15.7539677, "ECCENTRICITY": 0.00019808, "INCLINATION": 43, "RA_OF_ASC_NODE": 106.1785, "ARG_OF_PERICENTER": 275.3625, "MEAN_ANOMALY": 2.3017, "EPHEMERIS_TYPE": 0, "CLASSIFICATION_TYPE": "U", "NORAD_CAT_ID": 66543, "ELEMENT_SET_NO": 999, "REV_AT_EPOCH": 346, "BSTAR": -0.0062994132, "MEAN_MOTION_DOT": -0.00886185, "MEAN_MOTION_DDOT": 0}, "tle": {"line1": "1 66543U 25265AD  25337.91670139 -.00886185  00000+0 -62994-2 0  9999", "line2": "2 66543  43.0000 106.1785 0001980 275.3625   2.3017 15.75396770  3465"}}, "geometry": {"type": "Point", "coordinates": [54.341041190110616, -35.475595175092884]}}, {"type": "Feature", "properties": {"norad_id": 66544, "name": "STARLINK-35728", "group": "last-30-days", "lat": -34.637202074825275, "lon": 56.37778285277391, "alt_km": 347.1758257151232, "timestamp": "2025-12-04T05:42:42.158720+00:00", "meta": {"OBJECT_NAME": "STARLINK-35728", "OBJECT_ID": "2025-265AE", "EPOCH": "2025-12-03T22:00:03.000096", "MEAN_MOTION": 15.75303747, "ECCENTRICITY": 0.00017904, "INCLINATION": 42.9999, "RA_OF_ASC_NODE": 106.174, "ARG_OF_PERICENTER": 262.6294, "MEAN_ANOMALY": 16.944, "EPHEMERIS_TYPE": 0, "CLASSIFICATION_TYPE": "U", "NORAD_CAT_ID": 66544, "ELEMENT_SET_NO": 999, "REV_AT_EPOCH": 357, "BSTAR": -0.0051554061, "MEAN_MOTION_DOT": -0.0073545, "MEAN_MOTION_DDOT": 0}, "tle": {"line1": "1 66544U 25265AE  25337.91670139 -.00735450  00000+0 -51554-2 0  9998", "line2": "2 66544  42.9999 106.1740 0001790 262.6294  16.9440 15.75303747  3577"}}, "geometry": {"type": "Point", "coordinates": [56.37778285277391, -34.637202074825275]}}, {"type": "Feature", "properties": {"norad_id": 66545, "name": "SHIJIAN-30A", "group": "last-30-days", "lat": -46.47615942067054, "lon": -43.323043596931726, "alt_km": 516.9932291780524, "timestamp": "2025-12-04T05:42:42.158730+00:00", "meta": {"OBJECT_NAME": "SHIJIAN-30A", "OBJECT_ID": "2025-266A", "EPOCH": "2025-12-03T18:55:40.522944", "MEAN_MOTION": 15.15353605, "ECCENTRICITY": 0.00127786, "INCLINATION": 51.7998, "RA_OF_ASC_NODE": 14.7919, "ARG_OF_PERICENTER": 324.646, "MEAN_ANOMALY": 35.3668, "EPHEMERIS_TYPE": 0, "CLASSIFICATION_TYPE": "U", "NORAD_CAT_ID": 66545, "ELEMENT_SET_NO": 999, "REV_AT_EPOCH": 222, "BSTAR": 0.0010765148, "MEAN_MOTION_DOT": 0.00020346, "MEAN_MOTION_DDOT": 0}, "tle": {"line1": "1 66545U 25266A   25337.78866346  .00020346  00000+0  10765-2 0  9990", "line2": "2 66545  51.7998  14.7919 0012778 324.6460  35.3668 15.15353605  2229"}}, "geometry": {"type": "Point", "coordinates": [-43.323043596931726, -46.47615942067054]}}, {"type": "Feature", "properties": {"norad_id": 66546, "name": "SHIJIAN-30B", "group": "last-30-days", "lat": -48.53989774143857, "lon": -50.35208389747991, "alt_km": 518.7983395548408, "timestamp": "2025-12-04T05:42:42.158740+00:00", "meta": {"OBJECT_NAME": "SHIJIAN-30B", "OBJECT_ID": "2025-266B", "EPOCH": "2025-12-03T18:57:04.698144", "MEAN_MOTION": 15.15418807, "ECCENTRICITY": 0.0010489, "INCLINATION": 51.7981, "RA_OF_ASC_NODE": 14.7962, "ARG_OF_PERICENTER": 327.632, "MEAN_ANOMALY": 32.4012, "EPHEMERIS_TYPE": 0, "CLASSIFICATION_TYPE": "U", "NORAD_CAT_ID": 66546, "ELEMENT_SET_NO": 999, "REV_AT_EPOCH": 222, "BSTAR": 0.001258634, "MEAN_MOTION_DOT": 0.00023882, "MEAN_MOTION_DDOT": 0}, "tle": {"line1": "1 66546U 25266B   25337.78963771  .00023882  00000+0  12586-2 0  9992", "line2": "2 66546  51.7981  14.7962 0010489 327.6320  32.4012 15.15418807  2222"}}, "geometry": {"type": "Point", "coordinates": [-50.35208389747991, -48.53989774143857]}}, {"type": "Feature", "properties": {"norad_id": 66547, "name": "SHIJIAN-30C", "group": "last-30-days", "lat": -49.82980375261811, "lon": -56.17967043498069, "alt_km": 517.9732725833901, "timestamp": "2025-12-04T05:42:42.158750+00:00", "meta": {"OBJECT_NAME": "SHIJIAN-30C", "OBJECT_ID": "2025-266C", "EPOCH": "2025-12-03T18:58:09.039360", "MEAN_MOTION": 15.15452594, "ECCENTRICITY": 0.00113502, "INCLINATION": 51.7992, "RA_OF_ASC_NODE": 14.8019, "ARG_OF_PERICENTER": 319.8506, "MEAN_ANOMALY": 40.163, "EPHEMERIS_TYPE": 0, "CLASSIFICATION_TYPE": "U", "NORAD_CAT_ID": 66547, "ELEMENT_SET_NO": 999, "REV_AT_EPOCH": 222, "BSTAR": 0.0010797943, "MEAN_MOTION_DOT": 0.00020459, "MEAN_MOTION_DDOT": 0}, "tle": {"line1": "1 66547U 25266C   25337.79038240  .00020459  00000+0  10798-2 0  9998", "line2": "2 66547  51.7992  14.8019 0011350 319.8506  40.1630 15.15452594  2229"}}, "geometry": {"type": "Point", "coordinates": [-56.17967043498069, -49.82980375261811]}}, {"type": "Feature", "properties": {"norad_id": 66548, "name": "CZ-2C R/B", "group": "last-30-days", "lat": -13.722152293474178, "lon": 0.7917596933789655, "alt_km": 533.5198147544315, "timestamp": "2025-12-04T05:42:42.158760+00:00", "meta": {"OBJECT_NAME": "CZ-2C R/B", "OBJECT_ID": "2025-266D", "EPOCH": "2025-12-03T21:57:01.262880", "MEAN_MOTION": 15.29875267, "ECCENTRICITY": 0.00846774, "INCLINATION": 52.0554, "RA_OF_ASC_NODE": 13.3161, "ARG_OF_PERICENTER": 143.0507, "MEAN_ANOMALY": 217.6353, "EPHEMERIS_TYPE": 0, "CLASSIFICATION_TYPE": "U", "NORAD_CAT_ID": 66548, "ELEMENT_SET_NO": 999, "REV_AT_EPOCH": 226, "BSTAR": 0.00066182659, "MEAN_MOTION_DOT": 0.00021335, "MEAN_MOTION_DDOT": 0}, "tle": {"line1": "1 66548U 25266D   25337.91459795  .00021335  00000+0  66183-3 0  9999", "line2": "2 66548  52.0554  13.3161 0084677 143.0507 217.6353 15.29875267  2268"}}, "geometry": {"type": "Point", "coordinates": [0.7917596933789655, -13.722152293474178]}}, {"type": "Feature", "properties": {"norad_id": 66549, "name": "SHIJIAN-28", "group": "last-30-days", "lat": -0.4938146820453947, "lon": -87.92406863384036, "alt_km": 35520.694998861516, "timestamp": "2025-12-04T05:42:42.158772+00:00", "meta": {"OBJECT_NAME": "SHIJIAN-28", "OBJECT_ID": "2025-277A", "EPOCH": "2025-11-30T18:06:43.124256", "MEAN_MOTION": 2.28019775, "ECCENTRICITY": 0.7300519, "INCLINATION": 14.4344, "RA_OF_ASC_NODE": 275.4056, "ARG_OF_PERICENTER": 179.5026, "MEAN_ANOMALY": 182.358, "EPHEMERIS_TYPE": 0, "CLASSIFICATION_TYPE": "U", "NORAD_CAT_ID": 66549, "ELEMENT_SET_NO": 999, "REV_AT_EPOCH": 4, "BSTAR": 0.00062085, "MEAN_MOTION_DOT": 6.315e-05, "MEAN_MOTION_DDOT": 0}, "tle": {"line1": "1 66549U 25277A   25334.75466579  .00006315  00000+0  62085-3 0  9997", "line2": "2 66549  14.4344 275.4056 7300519 179.5026 182.3580  2.28019775    48"}}, "geometry": {"type": "Point", "coordinates": [-87.92406863384036, -0.4938146820453947]}}]}